{"type": "FeatureCollection", "features": [ {"type": "Feature", "properties": {"norad_id": 39122, "name": "EUTELSAT 117 WEST A", "group": "eutelsat", "lat": -0.015822048185493834, "lon": -45.281278091411984, "alt_km": 35778.94475435197, "timestamp": "2025-12-08T23:34:03.641096+00:00", "meta": {"OBJECT_NAME": "EUTELSAT 117 WEST A", "OBJECT_ID": "2013-012A", "EPOCH": "2025-12-08T13:15:20.372832", "MEAN_MOTION": 1.00270452, "ECCENTRICITY": 0.00031076, "INCLINATION": 0.0132, "RA_OF_ASC_NODE": 341.8623, "ARG_OF_PERICENTER": 277.5668, "MEAN_ANOMALY": 260.1625, "EPHEMERIS_TYPE": 0, "CLASSIFICATION_TYPE": "U", "NORAD_CAT_ID": 39122, "ELEMENT_SET_NO": 999, "REV_AT_EPOCH": 4652, "BSTAR": 0, "MEAN_MOTION_DOT": -1e-07, "MEAN_MOTION_DDOT": 0}, "tle": {"line1": "1 39122U 13012A   25342.55231913 -.00000010  00000+0  00000+0 0  9999", "line2": "2 39122   0.0132 341.8623 0003107 277.5668 260.1625  1.00270452 46524"}}, "geometry": {"type": "Point", "coordinates": [-45.281278091411984, -0.015822048185493834]}}, {"type": "Feature", "properties": {"norad_id": 39163, "name": "EUTELSAT 7B", "group": "eutelsat", "lat": 0.08441113069987773, "lon": 78.51991093683203, "alt_km": 35797.107883768906, "timestamp": "2025-12-08T23:34:03.641108+00:00", "meta": {"OBJECT_NAME": "EUTELSAT 7B", "OBJECT_ID": "2013-022A", "EPOCH": "2025-12-08T13:38:07.066176", "MEAN_MOTION": 1.00271279, "ECCENTRICITY": 0.00045319, "INCLINATION": 0.0699, "RA_OF_ASC_NODE": 12.6277, "ARG_OF_PERICENTER": 301.171, "MEAN_ANOMALY": 335.2897, "EPHEMERIS_TYPE": 0, "CLASSIFICATION_TYPE": "U", "NORAD_CAT_ID": 39163, "ELEMENT_SET_NO": 999, "REV_AT_EPOCH": 4604, "BSTAR": 0, "MEAN_MOTION_DOT": 5e-07, "MEAN_MOTION_DDOT": 0}, "tle": {"line1": "1 39163U 13022A   25342.56813734  .00000050  00000+0  00000+0 0  9996", "line2": "2 39163   0.0699  12.6277 0004531 301.1710 335.2897  1.00271279 46049"}}, "geometry": {"type": "Point", "coordinates": [78.51991093683203, 0.08441113069987773]}}, {"type": "Feature", "properties": {"norad_id": 39612, "name": "EXPRESS-AT1", "group": "eutelsat", "lat": 0.020653799377931156, "lon": 127.48902154879268, "alt_km": 35784.91176250133, "timestamp": "2025-12-08T23:34:03.641120+00:00", "meta": {"OBJECT_NAME": "EXPRESS-AT1", "OBJECT_ID": "2014-010A", "EPOCH": "2025-12-08T10:25:38.750592", "MEAN_MOTION": 1.00271918, "ECCENTRICITY": 3.624e-05, "INCLINATION": 0.0156, "RA_OF_ASC_NODE": 341.1918, "ARG_OF_PERICENTER": 190.863, "MEAN_ANOMALY": 117.7973, "EPHEMERIS_TYPE": 0, "CLASSIFICATION_TYPE": "U", "NORAD_CAT_ID": 39612, "ELEMENT_SET_NO": 999, "REV_AT_EPOCH": 4290, "BSTAR": 0, "MEAN_MOTION_DOT": 0, "MEAN_MOTION_DDOT": 0}, "tle": {"line1": "1 39612U 14010A   25342.43447628  .00000000  00000+0  00000+0 0  9999", "line2": "2 39612   0.0156 341.1918 0000362 190.8630 117.7973  1.00271918 42909"}}, "geometry": {"type": "Point", "coordinates": [127.48902154879268, 0.020653799377931156]}}, {"type": "Feature", "properties": {"norad_id": 39613, "name": "EXPRESS-AT2", "group": "eutelsat", "lat": -0.033394273625872335, "lon": -148.662993722576, "alt_km": 35783.83749343525, "timestamp": "2025-12-08T23:34:03.641132+00:00", "meta": {"OBJECT_NAME": "EXPRESS-AT2", "OBJECT_ID": "2014-010B", "EPOCH": "2025-12-08T19:24:20.007360", "MEAN_MOTION": 1.00272556, "ECCENTRICITY": 0.0001571, "INCLINATION": 0.0175, "RA_OF_ASC_NODE": 309.9576, "ARG_OF_PERICENTER": 333.5602, "MEAN_ANOMALY": 225.2373, "EPHEMERIS_TYPE": 0, "CLASSIFICATION_TYPE": "U", "NORAD_CAT_ID": 39613, "ELEMENT_SET_NO": 999, "REV_AT_EPOCH": 4259, "BSTAR": 0, "MEAN_MOTION_DOT": -2.79e-06, "MEAN_MOTION_DDOT": 0}, "tle": {"line1": "1 39613U 14010B   25342.80856490 -.00000279  00000+0  00000+0 0  9991", "line2": "2 39613   0.0175 309.9576 0001571 333.5602 225.2373  1.00272556 42594"}}, "geometry": {"type": "Point", "coordinates": [-148.662993722576, -0.033394273625872335]}}, {"type": "Feature", "properties": {"norad_id": 39773, "name": "EUTELSAT 3B", "group": "eutelsat", "lat": 0.08492262423683335, "lon": 74.57287013954563, "alt_km": 35804.35444924341, "timestamp": "2025-12-08T23:34:03.641144+00:00", "meta": {"OBJECT_NAME": "EUTELSAT 3B", "OBJECT_ID": "2014-030A", "EPOCH": "2025-12-08T13:37:07.160736", "MEAN_MOTION": 1.00271162, "ECCENTRICITY": 0.00047949, "INCLINATION": 0.0638, "RA_OF_ASC_NODE": 339.4951, "ARG_OF_PERICENTER": 248.3736, "MEAN_ANOMALY": 57.0898, "EPHEMERIS_TYPE": 0, "CLASSIFICATION_TYPE": "U", "NORAD_CAT_ID": 39773, "ELEMENT_SET_NO": 999, "REV_AT_EPOCH": 4215, "BSTAR": 0, "MEAN_MOTION_DOT": 2.2e-07, "MEAN_MOTION_DDOT": 0}, "tle": {"line1": "1 39773U 14030A   25342.56744399  .00000022  00000+0  00000+0 0  9992", "line2": "2 39773   0.0638 339.4951 0004794 248.3736  57.0898  1.00271162 42158"}}, "geometry": {"type": "Point", "coordinates": [74.57287013954563, 0.08492262423683335]}}, {"type": "Feature", "properties": {"norad_id": 40425, "name": "EUTELSAT 115 WEST B", "group": "eutelsat", "lat": 0.011416492252411065, "lon": -43.41751132008098, "alt_km": 35790.05529769614, "timestamp": "2025-12-08T23:34:03.641156+00:00", "meta": {"OBJECT_NAME": "EUTELSAT 115 WEST B", "OBJECT_ID": "2015-010B", "EPOCH": "2025-12-08T12:13:02.250912", "MEAN_MOTION": 1.00263131, "ECCENTRICITY": 5.141e-05, "INCLINATION": 0.001, "RA_OF_ASC_NODE": 191.0559, "ARG_OF_PERICENTER": 261.5218, "MEAN_ANOMALY": 53.3056, "EPHEMERIS_TYPE": 0, "CLASSIFICATION_TYPE": "U", "NORAD_CAT_ID": 40425, "ELEMENT_SET_NO": 999, "REV_AT_EPOCH": 3948, "BSTAR": 0, "MEAN_MOTION_DOT": -2.2e-07, "MEAN_MOTION_DDOT": 0}, "tle": {"line1": "1 40425U 15010B   25342.50905383 -.00000022  00000+0  00000+0 0  9994", "line2": "2 40425   0.0010 191.0559 0000514 261.5218  53.3056  1.00263131 39486"}}, "geometry": {"type": "Point", "coordinates": [-43.41751132008098, 0.011416492252411065]}}, {"type": "Feature", "properties": {"norad_id": 40875, "name": "EUTELSAT 8 WEST B", "group": "eutelsat", "lat": 0.07913143625559778, "lon": 63.51797715258741, "alt_km": 35803.071082190094, "timestamp": "2025-12-08T23:34:03.641168+00:00", "meta": {"OBJECT_NAME": "EUTELSAT 8 WEST B", "OBJECT_ID": "2015-039B", "EPOCH": "2025-12-08T13:33:44.983872", "MEAN_MOTION": 1.0027144, "ECCENTRICITY": 0.00041398, "INCLINATION": 0.0644, "RA_OF_ASC_NODE": 358.7291, "ARG_OF_PERICENTER": 260.1205, "MEAN_ANOMALY": 14.1718, "EPHEMERIS_TYPE": 0, "CLASSIFICATION_TYPE": "U", "NORAD_CAT_ID": 40875, "ELEMENT_SET_NO": 999, "REV_AT_EPOCH": 3774, "BSTAR": 0, "MEAN_MOTION_DOT": -6.3e-07, "MEAN_MOTION_DDOT": 0}, "tle": {"line1": "1 40875U 15039B   25342.56510398 -.00000063  00000+0  00000+0 0  9993", "line2": "2 40875   0.0644 358.7291 0004139 260.1205  14.1718  1.00271440 37740"}}, "geometry": {"type": "Point", "coordinates": [63.51797715258741, 0.07913143625559778]}}, {"type": "Feature", "properties": {"norad_id": 41310, "name": "EUTELSAT 9B", "group": "eutelsat", "lat": 0.03456624384380998, "lon": 80.50776360067917, "alt_km": 35806.59394810593, "timestamp": "2025-12-08T23:34:03.641198+00:00", "meta": {"OBJECT_NAME": "EUTELSAT 9B", "OBJECT_ID": "2016-005A", "EPOCH": "2025-12-08T08:30:36.516384", "MEAN_MOTION": 1.00272374, "ECCENTRICITY": 0.00049086, "INCLINATION": 0.034, "RA_OF_ASC_NODE": 49.262, "ARG_OF_PERICENTER": 215.4191, "MEAN_ANOMALY": 309.3435, "EPHEMERIS_TYPE": 0, "CLASSIFICATION_TYPE": "U", "NORAD_CAT_ID": 41310, "ELEMENT_SET_NO": 999, "REV_AT_EPOCH": 3620, "BSTAR": 0, "MEAN_MOTION_DOT": 6.4e-07, "MEAN_MOTION_DDOT": 0}, "tle": {"line1": "1 41310U 16005A   25342.35458931  .00000064  00000+0  00000+0 0  9993", "line2": "2 41310   0.0340  49.2620 0004908 215.4191 309.3435  1.00272374 36209"}}, "geometry": {"type": "Point", "coordinates": [80.50776360067917, 0.03456624384380998]}}, {"type": "Feature", "properties": {"norad_id": 41382, "name": "EUTELSAT 65 WEST A", "group": "eutelsat", "lat": 0.011098931168922157, "lon": 6.30768450292536, "alt_km": 35788.76618925977, "timestamp": "2025-12-08T23:34:03.641211+00:00", "meta": {"OBJECT_NAME": "EUTELSAT 65 WEST A", "OBJECT_ID": "2016-014A", "EPOCH": "2025-12-08T12:41:22.901856", "MEAN_MOTION": 1.00271818, "ECCENTRICITY": 0.00026162, "INCLINATION": 0.0497, "RA_OF_ASC_NODE": 1.9264, "ARG_OF_PERICENTER": 260.5786, "MEAN_ANOMALY": 300.161, "EPHEMERIS_TYPE": 0, "CLASSIFICATION_TYPE": "U", "NORAD_CAT_ID": 41382, "ELEMENT_SET_NO": 999, "REV_AT_EPOCH": 3562, "BSTAR": 0, "MEAN_MOTION_DOT": -2.74e-06, "MEAN_MOTION_DDOT": 0}, "tle": {"line1": "1 41382U 16014A   25342.52873729 -.00000274  00000+0  00000+0 0  9991", "line2": "2 41382   0.0497   1.9264 0002616 260.5786 300.1610  1.00271818 35626"}}, "geometry": {"type": "Point", "coordinates": [6.30768450292536, 0.011098931168922157]}}, {"type": "Feature", "properties": {"norad_id": 41589, "name": "EUTELSAT 117 WEST B", "group": "eutelsat", "lat": 0.004199298285030107, "lon": -45.5092172384932, "alt_km": 35787.68066410995, "timestamp": "2025-12-08T23:34:03.641223+00:00", "meta": {"OBJECT_NAME": "EUTELSAT 117 WEST B", "OBJECT_ID": "2016-038B", "EPOCH": "2025-12-08T13:15:20.452320", "MEAN_MOTION": 1.00270251, "ECCENTRICITY": 3.593e-05, "INCLINATION": 0.0079, "RA_OF_ASC_NODE": 142.3088, "ARG_OF_PERICENTER": 313.5453, "MEAN_ANOMALY": 63.5421, "EPHEMERIS_TYPE": 0, "CLASSIFICATION_TYPE": "U", "NORAD_CAT_ID": 41589, "ELEMENT_SET_NO": 999, "REV_AT_EPOCH": 3475, "BSTAR": 0, "MEAN_MOTION_DOT": -9e-08, "MEAN_MOTION_DDOT": 0}, "tle": {"line1": "1 41589U 16038B   25342.55232005 -.00000009  00000+0  00000+0 0  9991", "line2": "2 41589   0.0079 142.3088 0000359 313.5453  63.5421  1.00270251 34750"}}, "geometry": {"type": "Point", "coordinates": [-45.5092172384932, 0.004199298285030107]}}]}